STARLINK-37582          
1 69363U 26123L   26175.26700525  .00084966  00000+0  55225-3 0  9993
2 69363  53.1579 206.4907 0001146  93.7405 266.3746 15.75265487  3150
STARLINK-37309          
1 69364U 26123M   26174.39295488 -.00901373  00000+0 -56002-2 0  9999
2 69364  53.1583 210.2586 0000970 142.5283 217.5806 15.78680910  3029
STARLINK-37436          
1 69365U 26123N   26175.27442929  .00178066  00000+0  88443-3 0  9990
2 69365  53.1583 205.7994 0001185  89.6637 270.4522 15.80941442  3166
STARLINK-37581          
1 69366U 26123P   26175.21497020  .00119858  00000+0  60178-3 0  9996
2 69366  53.1578 206.1410 0001301  52.8376 307.2766 15.80895192  3159
STARLINK-37683          
1 69367U 26123Q   26175.23491047  .00133073  00000+0  85750-3 0  9990
2 69367  53.1584 206.2732 0001244  99.3241 260.7920 15.75270308  3153
STARLINK-37687          
1 69368U 26123R   26175.26996748  .00116134  00000+0  58287-3 0  9996
2 69368  53.1583 205.7687 0001112  92.8660 267.2491 15.80916808  3167
STARLINK-37631          
1 69369U 26123S   26175.27075513  .00289879  00000+0  14157-2 0  9990
2 69369  53.1582 205.7739 0001841 130.0570 230.0615 15.80991761  3166
STARLINK-37673          
1 69370U 26123T   26175.15817364  .00153987  00000+0  98930-3 0  9999
2 69370  53.1596 206.5011 0001436  57.0048 303.1110 15.75267028  3149
STARLINK-37645          
1 69371U 26123U   26175.20918784 -.00679147  00000+0 -39145-2 0  9999
2 69371  53.1578 206.1009 0001597 145.8773 214.2352 15.79740667  3152
STARLINK-37688          
1 69372U 26123V   26175.25002315 -.00085978  00000+0 -43547-3 0  9994
2 69372  53.1575 205.8633 0001102  84.1549 164.3013 15.80919146  4340
STARLINK-37685          
1 69373U 26123W   26175.26912189  .00207018  00000+0  10242-2 0  9999
2 69373  53.1573 205.7609 0001202 100.3215 259.7943 15.80940659  3166
STARLINK-37632          
1 69374U 26123X   26175.26838108  .00147701  00000+0  73708-3 0  9997
2 69374  53.1574 205.7559 0001184 110.5263 249.5887 15.80933183  3165
STARLINK-37454          
1 69375U 26123Y   26175.26728283  .00179686  00000+0  89196-3 0  9995
2 69375  53.1572 205.7484 0001060 111.3536 248.7600 15.80949214  3162
STARLINK-37485          
1 69376U 26123Z   26175.20382203  .00113474  00000+0  61978-3 0  9999
2 69376  53.1573 206.0631 0005876 224.9290 135.1257 15.79050886  3151
STARLINK-37439          
1 69377U 26123AA  26175.25942675  .00198363  00000+0  98200-3 0  9998
2 69377  53.1568 205.6941 0001200 110.8103 249.3048 15.80953013  3161
STARLINK-37376          
1 69378U 26123AB  26175.28473801  .00141358  00000+0  90941-3 0  9998
2 69378  53.1599 205.8644 0001157 107.1334 252.9813 15.75278498  3165
STARLINK-37383          
1 69379U 26123AC  26175.25589650  .00130666  00000+0  65395-3 0  9991
2 69379  53.1572 205.6694 0001127  90.7067 269.4085 15.80927137  3168
STARLINK-37411          
1 69380U 26123AD  26175.26078309  .00241545  00000+0  11884-2 0  9990
2 69380  53.1566 205.7020 0001222 116.3089 243.8060 15.80964944  3168
STARLINK-37427          
1 69381U 26123AE  26175.25668084  .00179016  00000+0  88886-3 0  9995
2 69381  53.1567 205.6746 0001244 108.5465 251.5693 15.80945756  3167
QIANFAN-165             
1 69382U 26124A   26175.25282455  .00000111  00000+0  49046-4 0  9996
2 69382  88.9985   1.2413 0003335 111.6169 248.5375 14.16013424  2818
QIANFAN-166             
1 69383U 26124B   26175.24315157  .00000111  00000+0  47982-4 0  9999
2 69383  88.9985   1.2400 0002900 104.3004 255.8507 14.17060554  2814
QIANFAN-167             
1 69384U 26124C   26175.24598534  .00000097  00000+0  41448-4 0  9996
2 69384  88.9984   1.2401 0002734 145.8771 214.2594 14.16526918  2816
QIANFAN-168             
1 69385U 26124D   26175.23556232  .00000108  00000+0  45629-4 0  9993
2 69385  88.9984   1.2387 0003655 121.5559 238.5987 14.17873841  2814
QIANFAN-169             
1 69386U 26124E   26175.23113269  .00000118  00000+0  50324-4 0  9992
2 69386  88.9984   1.2380 0003902 137.2613 222.8880 14.18287552  2815
QIANFAN-170             
1 69387U 26124F   26175.22408584  .00000105  00000+0  43341-4 0  9996
2 69387  88.9984   1.2369 0003547 117.2572 242.8980 14.19184387  2816
QIANFAN-171             
1 69388U 26124G   26175.21676445  .00000081  00000+0  31486-4 0  9999
2 69388  88.9984   1.2359 0002861 159.3941 200.7365 14.20068386  2813
QIANFAN-172             
1 69389U 26124H   26175.22002880  .00000120  00000+0  50141-4 0  9990
2 69389  88.9984   1.2363 0003100 139.1436 220.9987 14.19639192  2812
QIANFAN-173             
1 69390U 26124J   26175.21327278  .00000111  00000+0  44967-4 0  9991
2 69390  88.9984   1.2354 0003356 130.4114 229.7370 14.20510535  2818
QIANFAN-174             
1 69391U 26124K   26175.27885352  .00000094  00000+0  36806-4 0  9993
2 69391  88.9984   1.2266 0003580 136.6619 223.4854 14.20879045  2821
QIANFAN-175             
1 69392U 26124L   26175.27621879  .00000130  00000+0  52917-4 0  9998
2 69392  88.9984   1.2262 0004156 151.1749 208.9672 14.21340570  2827
