OBJECT_NAME,OBJECT_ID,EPOCH,MEAN_MOTION,ECCENTRICITY,INCLINATION,RA_OF_ASC_NODE,ARG_OF_PERICENTER,MEAN_ANOMALY,EPHEMERIS_TYPE,CLASSIFICATION_TYPE,NORAD_CAT_ID,ELEMENT_SET_NO,REV_AT_EPOCH,BSTAR,MEAN_MOTION_DOT,MEAN_MOTION_DDOT
STARLINK-37582,2026-123L,2026-06-24T06:24:29.253600,15.75265487,.00011462,53.1579,206.4907,93.7405,266.3746,0,U,69363,999,315,.55225128E-3,.84966E-3,0
STARLINK-37309,2026-123M,2026-06-23T09:25:51.301632,15.78680910,.00009703,53.1583,210.2586,142.5283,217.5806,0,U,69364,999,302,-.56002324E-2,-.901373E-2,0
STARLINK-37436,2026-123N,2026-06-24T06:35:10.690656,15.80941442,.00011856,53.1583,205.7994,89.6637,270.4522,0,U,69365,999,316,.88443292E-3,.178066E-2,0
STARLINK-37581,2026-123P,2026-06-24T05:09:33.425280,15.80895192,.00013013,53.1578,206.1410,52.8376,307.2766,0,U,69366,999,315,.60178264E-3,.119858E-2,0
STARLINK-37683,2026-123Q,2026-06-24T05:38:16.264608,15.75270308,.00012445,53.1584,206.2732,99.3241,260.7920,0,U,69367,999,315,.85749973E-3,.133073E-2,0
STARLINK-37687,2026-123R,2026-06-24T06:28:45.190272,15.80916808,.00011126,53.1583,205.7687,92.8660,267.2491,0,U,69368,999,316,.58287251E-3,.116134E-2,0
STARLINK-37631,2026-123S,2026-06-24T06:29:53.243232,15.80991761,.0001841,53.1582,205.7739,130.0570,230.0615,0,U,69369,999,316,.14156939E-2,.289879E-2,0
STARLINK-37673,2026-123T,2026-06-24T03:47:46.202496,15.75267028,.00014365,53.1596,206.5011,57.0048,303.1110,0,U,69370,999,314,.98929881E-3,.153987E-2,0
STARLINK-37645,2026-123U,2026-06-24T05:01:13.829376,15.79740667,.00015974,53.1578,206.1009,145.8773,214.2352,0,U,69371,999,315,-.39145253E-2,-.679147E-2,0
STARLINK-37688,2026-123V,2026-06-24T06:00:02.000160,15.80919146,.00011028,53.1575,205.8633,84.1549,164.3013,0,U,69372,999,434,-.43546554E-3,-.85978E-3,0
STARLINK-37685,2026-123W,2026-06-24T06:27:32.131296,15.80940659,.00012027,53.1573,205.7609,100.3215,259.7943,0,U,69373,999,316,.10242477E-2,.207018E-2,0
STARLINK-37632,2026-123X,2026-06-24T06:26:28.125312,15.80933183,.00011848,53.1574,205.7559,110.5263,249.5887,0,U,69374,999,316,.73708346E-3,.147701E-2,0
STARLINK-37454,2026-123Y,2026-06-24T06:24:53.236512,15.80949214,.00010605,53.1572,205.7484,111.3536,248.7600,0,U,69375,999,316,.89196363E-3,.179686E-2,0
STARLINK-37485,2026-123Z,2026-06-24T04:53:30.223392,15.79050886,.00058761,53.1573,206.0631,224.9290,135.1257,0,U,69376,999,315,.61977987E-3,.113474E-2,0
STARLINK-37439,2026-123AA,2026-06-24T06:13:34.471200,15.80953013,.00012004,53.1568,205.6941,110.8103,249.3048,0,U,69377,999,316,.98199968E-3,.198363E-2,0
STARLINK-37376,2026-123AB,2026-06-24T06:50:01.364064,15.75278498,.00011572,53.1599,205.8644,107.1334,252.9813,0,U,69378,999,316,.90941319E-3,.141358E-2,0
STARLINK-37383,2026-123AC,2026-06-24T06:08:29.457600,15.80927137,.00011272,53.1572,205.6694,90.7067,269.4085,0,U,69379,999,316,.65395257E-3,.130666E-2,0
STARLINK-37411,2026-123AD,2026-06-24T06:15:31.658976,15.80964944,.00012223,53.1566,205.7020,116.3089,243.8060,0,U,69380,999,316,.11883628E-2,.241545E-2,0
STARLINK-37427,2026-123AE,2026-06-24T06:09:37.224576,15.80945756,.00012443,53.1567,205.6746,108.5465,251.5693,0,U,69381,999,316,.88885739E-3,.179016E-2,0
QIANFAN-165,2026-124A,2026-06-24T06:04:04.041120,14.16013424,.00033357,88.9985,1.2413,111.6169,248.5375,0,U,69382,999,281,.49046417E-4,.111E-5,0
QIANFAN-166,2026-124B,2026-06-24T05:50:08.295648,14.17060554,.00029006,88.9985,1.2400,104.3004,255.8507,0,U,69383,999,281,.47982329E-4,.111E-5,0
QIANFAN-167,2026-124C,2026-06-24T05:54:13.133376,14.16526918,.00027349,88.9984,1.2401,145.8771,214.2594,0,U,69384,999,281,.41448283E-4,.97E-6,0
QIANFAN-168,2026-124D,2026-06-24T05:39:12.584448,14.17873841,.00036552,88.9984,1.2387,121.5559,238.5987,0,U,69385,999,281,.45628923E-4,.108E-5,0
QIANFAN-169,2026-124E,2026-06-24T05:32:49.864416,14.18287552,.00039025,88.9984,1.2380,137.2613,222.8880,0,U,69386,999,281,.5032445E-4,.118E-5,0
QIANFAN-170,2026-124F,2026-06-24T05:22:41.016576,14.19184387,.00035476,88.9984,1.2369,117.2572,242.8980,0,U,69387,999,281,.43341356E-4,.105E-5,0
QIANFAN-171,2026-124G,2026-06-24T05:12:08.448480,14.20068386,.00028617,88.9984,1.2359,159.3941,200.7365,0,U,69388,999,281,.3148615E-4,.81E-6,0
QIANFAN-172,2026-124H,2026-06-24T05:16:50.488320,14.19639192,.00031003,88.9984,1.2363,139.1436,220.9987,0,U,69389,999,281,.50140639E-4,.12E-5,0
QIANFAN-173,2026-124J,2026-06-24T05:07:06.768192,14.20510535,.00033568,88.9984,1.2354,130.4114,229.7370,0,U,69390,999,281,.44966913E-4,.111E-5,0
QIANFAN-174,2026-124K,2026-06-24T06:41:32.944128,14.20879045,.00035809,88.9984,1.2266,136.6619,223.4854,0,U,69391,999,282,.36805773E-4,.94E-6,0
QIANFAN-175,2026-124L,2026-06-24T06:37:45.303456,14.21340570,.00041567,88.9984,1.2262,151.1749,208.9672,0,U,69392,999,282,.52917412E-4,.13E-5,0
